LEMUR-2-LUCYBRYCE       
1 42773U 17036J   20209.15826846  .00000802  00000-0  36902-4 0  9997
2 42773  97.3031 261.9127 0012333 231.2199 128.7937 15.23079044171804
LEMUR-2-KUNGFOO         
1 42774U 17036K   20208.91958239  .00001029  00000-0  46267-4 0  9990
2 42774  97.2997 261.2810 0012203 233.1945 126.8173 15.23254360171743
AALTO-1                 
1 42775U 17036L   20209.10044393  .00000531  00000-0  26267-4 0  9995
2 42775  97.2953 259.9774 0012343 236.1317 123.8745 15.21888620171708
URSA MAIOR              
1 42776U 17036M   20209.15067586  .00000582  00000-0  28389-4 0  9993
2 42776  97.2966 260.3279 0012167 235.4626 124.5462 15.22075870171720
COMPASS 2               
1 42777U 17036N   20208.88100285  .00001151  00000-0  50320-4 0  9990
2 42777  97.3025 262.4987 0010774 232.9904 127.0349 15.24020597171809
MAX VALIER SAT          
1 42778U 17036P   20208.83831133  .00000635  00000-0  30188-4 0  9995
2 42778  97.3021 261.3800 0010639 239.2376 120.7814 15.22675422171720
LEMUR-2-LYNSEY-SYMO     
1 42779U 17036Q   20209.15953861  .00001203  00000-0  51332-4 0  9991
2 42779  97.3032 263.5864 0009999 235.4982 124.5312 15.24770436171891
LEMUR-2-LISASAURUS      
1 42780U 17036R   20209.14523180  .00000818  00000-0  37038-4 0  9997
2 42780  97.3020 262.5823 0010235 238.5878 121.4358 15.23584607171840
LEMUR-2-SAM-AMELIA      
1 42781U 17036S   20208.89915185  .00000838  00000-0  37584-4 0  9997
2 42781  97.3037 262.8858 0010260 238.8724 121.1507 15.23848221171827
LEMUR-2-MCPEAKE         
1 42782U 17036T   20208.87837119  .00001181  00000-0  51361-4 0  9997
2 42782  97.3016 262.8540 0009920 238.5211 121.5058 15.24166002171828
DIAMOND RED             
1 42783U 17036U   20208.90477454  .00000694  00000-0  32523-4 0  9991
2 42783  97.2978 261.3094 0010338 245.8038 114.2118 15.22895986171752
PEGASUS                 
1 42784U 17036V   20209.12265987  .00000767  00000-0  35244-4 0  9997
2 42784  97.2984 261.9678 0010235 243.5872 116.4315 15.23282670171812
DIAMOND GREEN           
1 42785U 17036W   20209.10066993  .00000602  00000-0  28569-4 0  9992
2 42785  97.2981 261.5366 0010233 245.7060 114.3108 15.22895930171771
DIAMOND BLUE            
1 42786U 17036X   20208.90277021  .00000699  00000-0  32721-4 0  9997
2 42786  97.2981 261.3393 0010076 246.7327 113.2850 15.22896092171820
NUDTSAT                 
1 42787U 17036Y   20208.94824005  .00001095  00000-0  47182-4 0  9990
2 42787  97.3038 263.2865 0009833 248.5658 111.4532 15.24623709171716
SUCHAI                  
1 42788U 17036Z   20208.86976055  .00000968  00000-0  42996-4 0  9991
2 42788  97.2993 262.3471 0009781 242.2548 117.7698 15.23845098171886
SKCUBE                  
1 42789U 17036AA  20208.91999722  .00000902  00000-0  40456-4 0  9991
2 42789  97.2987 262.2364 0009671 242.4374 117.5881 15.23681710171800
VZLUSAT-1               
1 42790U 17036AB  20208.87197160  .00001208  00000-0  51765-4 0  9999
2 42790  97.3013 263.2064 0009202 239.3476 120.6855 15.24609288171851
ROBUSTA-1B              
1 42792U 17036AD  20208.86888397  .00000948  00000-0  42148-4 0  9994
2 42792  97.2989 262.4503 0009242 242.8046 117.2250 15.23873778171823
CICERO 6                
1 42793U 17036AE  20208.87307497  .00000617  00000-0  28989-4 0  9993
2 42793  97.2965 261.8103 0008551 245.8630 114.1713 15.23197262171862
D-SAT                   
1 42794U 17036AF  20208.89552227  .00000265  00000-0  28471-4 0  9994
2 42794  97.4912 239.5956 0124850 232.9256 126.0497 14.91295154168575
TYVAK-53B               
1 42795U 17036AG  20209.08704674  .00001561  00000-0  65746-4 0  9998
2 42795  97.2817 260.9067 0007521  45.2379 314.9470 15.24780755171896
COSMOS 2519             
1 42798U 17037A   20208.88886336  .00017827  00000-0  20077-3 0  9994
2 42798  97.8246 325.3356 0183401 190.6770 169.0563 15.44705997170764
BULGARIASAT-1           
1 42801U 17038A   20208.89268587  .00000002  00000-0  00000-0 0  9991
2 42801   0.0136  52.2442 0002497  71.3301 144.7061  1.00272266 11251
IRIDIUM 113             
1 42803U 17039A   20208.85832924  .00000076  00000-0  20037-4 0  9999
2 42803  86.4006 141.1249 0002041  92.2874 267.8556 14.34217451162835
IRIDIUM 123             
1 42804U 17039B   20208.89980317  .00000070  00000-0  17831-4 0  9996
2 42804  86.4006 172.6460 0002053  85.7916 274.3514 14.34218685161608
IRIDIUM 120             
1 42805U 17039C   20209.13106310  .00000080  00000-0  21673-4 0  9998
2 42805  86.3995 141.0721 0002075  94.6107 265.5325 14.34218450162861
IRIDIUM 115             
1 42806U 17039D   20209.05995519  .00000078  00000-0  17169-4 0  9999
2 42806  86.4535 140.9032 0001452   7.2343 352.8879 14.43276903163992
IRIDIUM 118             
1 42807U 17039E   20208.93152040  .00000074  00000-0  19395-4 0  9999
2 42807  86.4006 172.6398 0002159  77.9895 282.1543 14.34218430161604
IRIDIUM 117             
1 42808U 17039F   20208.88078238  .00000073  00000-0  18935-4 0  9998
2 42808  86.4005 172.6374 0002423  98.1438 262.0033 14.34216717161630
IRIDIUM 126             
1 42809U 17039G   20208.90615168  .00000077  00000-0  20494-4 0  9998
2 42809  86.4009 172.6447 0002192  88.0230 272.1216 14.34217910161616
IRIDIUM 124             
1 42810U 17039H   20209.13235563  .00000031  00000-0  31443-5 0  9990
2 42810  86.4498 109.3502 0002684  90.4980 269.6529 14.43277643164850
IRIDIUM 128             
1 42811U 17039J   20209.03641564  .00000073  00000-0  19133-4 0  9999
2 42811  86.3983 204.0995 0001684 106.0172 254.1210 14.34218789161651
IRIDIUM 121             
1 42812U 17039K   20208.92518387  .00000066  00000-0  16529-4 0  9991
2 42812  86.4008 172.6524 0002098  87.7130 272.4306 14.34215371161482
HELLAS-SAT 3            
1 42814U 17040A   20208.82830576  .00000143  00000-0  00000-0 0  9990
2 42814   0.0754  45.7972 0003241  30.7951 205.5495  1.00272734 11295
GSAT-17                 
1 42815U 17040B   20208.86716336 -.00000267  00000-0  00000+0 0  9999
2 42815   0.0808 272.7633 0001742   9.7767  68.1909  1.00271791 11304
INTELSAT 35E (IS-35E)   
1 42818U 17041A   20208.74185495 -.00000247  00000-0  00000-0 0  9995
2 42818   0.0491 241.7890 0001795 232.8041  62.8609  1.00271946 11308
KANOPUS-V-IK            
1 42825U 17042A   20209.12474890  .00000215  00000-0  13428-4 0  9993
2 42825  97.4420 116.7682 0002034  82.8469  22.9120 15.19165313168338
NORSAT 1                
1 42826U 17042B   20208.92801166  .00000075  00000-0  12830-4 0  9991
2 42826  97.5166  88.7207 0015588 145.1485 215.0758 14.91127509165172
2017-042C               
1 42827U 17042C   20209.16724844  .00000201  00000-0  25371-4 0  9991
2 42827  97.5177  89.3560 0015859 144.6200 215.6075 14.91343261165188
NORSAT 2                
1 42828U 17042D   20208.89611124  .00000303  00000-0  35487-4 0  9999
2 42828  97.5213  89.6865 0015012 146.5510 213.6661 14.91538452165207
TECHNOSAT               
1 42829U 17042E   20209.14394345  .00000193  00000-0  24740-4 0  9999
2 42829  97.5150  89.0495 0014942 147.1596 213.0554 14.91113996165200
2017-042F               
1 42830U 17042F   20209.12578290  .00000247  00000-0  29349-4 0  9992
2 42830  97.5232  90.5798 0014968 140.9997 219.2305 14.92273456165278
FLYING LAPTOP           
1 42831U 17042G   20208.92053954 -.00000056  00000-0 -33644-6 0  9990
2 42831  97.5164  88.9801 0014812 147.9279 212.2844 14.91140467165171
2017-042H               
1 42832U 17042H   20209.14823214  .00000232  00000-0  28589-4 0  9994
2 42832  97.5163  89.4449 0014618 144.7686 215.4503 14.91311269165229
2017-042J               
1 42833U 17042J   20209.11370267 -.00000025  00000-0  27497-5 0  9996
2 42833  97.5161  89.4883 0014594 145.1270 215.0909 14.91377069165234
2017-042K               
1 42834U 17042K   20209.13038391  .00000046  00000-0  99047-5 0  9990
2 42834  97.5169  89.5237 0014188 148.2537 211.9540 14.91343850165222
WNISAT 1R               
1 42835U 17042L   20208.89327895  .00000147  00000-0  20059-4 0  9991
2 42835  97.5148  89.0625 0014042 146.2813 213.9302 14.91239967165186
2017-042M               
1 42836U 17042M   20209.11443845 -.00000065  00000-0 -11929-5 0  9990
2 42836  97.5162  89.4583 0013949 148.2513 211.9550 14.91323214165232
LEMUR-2-GREENBERG       
1 42837U 17042N   20208.90600314  .00000040  00000-0  91209-5 0  9993
2 42837  97.5199  90.3813 0013886 142.0998 218.1202 14.92189644165263
LEMUR-2-ANDIS           
1 42838U 17042P   20208.90021500  .00000304  00000-0  35011-4 0  9999
2 42838  97.5197  90.3826 0013977 141.9143 218.3067 14.92158007165267
LEMUR-2-MONSON          
1 42839U 17042Q   20208.89950061  .00000281  00000-0  32922-4 0  9993
2 42839  97.5206  90.2722 0013687 141.9061 218.3129 14.91978250165257
LEMUR-2-FURIAUS         
1 42840U 17042R   20208.93738477  .00000159  00000-0  20815-4 0  9997
2 42840  97.5210  90.5007 0013899 141.4995 218.7219 14.92103688165260
LEMUR-2-PETERG          
1 42841U 17042S   20208.91847988  .00000060  00000-0  11028-4 0  9991
2 42841  97.5226  90.9105 0013446 138.2816 221.9431 14.92406636165299
LEMUR-2-DEMBITZ         
1 42842U 17042T   20208.90951436  .00000144  00000-0  19268-4 0  9992
2 42842  97.5216  90.8732 0013522 139.2960 220.9273 14.92397620165295
2017-042U               
1 42843U 17042U   20209.13215420 -.00000020  00000-0  32370-5 0  9999
2 42843  97.5164  90.2295 0013627 140.3755 219.8463 14.91706842165283
NANOACE                 
1 42844U 17042V   20209.11323203  .00000037  00000-0  88085-5 0  9998
2 42844  97.5172  90.7192 0013410 133.9484 226.2844 14.92325958165316
LEMUR-2-ZACHARY         
1 42845U 17042W   20208.94202957  .00000356  00000-0  39659-4 0  9997
2 42845  97.5146  90.5063 0013778 142.3418 217.8769 14.92667859165312
